[{"OBJECT_NAME":"STARLINK-5446","OBJECT_ID":"2022-175AH","EPOCH":"2026-03-09T05:46:11.315136","MEAN_MOTION":15.08828996,"ECCENTRICITY":0.0001598,"INCLINATION":53.2197,"RA_OF_ASC_NODE":15.9031,"ARG_OF_PERICENTER":104.6325,"MEAN_ANOMALY":255.4845,"EPHEMERIS_TYPE":0,"CLASSIFICATION_TYPE":"U","NORAD_CAT_ID":54789,"ELEMENT_SET_NO":999,"REV_AT_EPOCH":18027,"BSTAR":-8.1088323e-5,"MEAN_MOTION_DOT":-1.578e-5,"MEAN_MOTION_DDOT":0},{"OBJECT_NAME":"NOAA 17 DEB","OBJECT_ID":"2002-032CE","EPOCH":"2026-03-09T04:37:56.707680","MEAN_MOTION":15.14538728,"ECCENTRICITY":0.00195132,"INCLINATION":98.8443,"RA_OF_ASC_NODE":158.3366,"ARG_OF_PERICENTER":246.7141,"MEAN_ANOMALY":113.2034,"EPHEMERIS_TYPE":0,"CLASSIFICATION_TYPE":"U","NORAD_CAT_ID":48745,"ELEMENT_SET_NO":999,"REV_AT_EPOCH":26329,"BSTAR":0.0059143418,"MEAN_MOTION_DOT":0.00111029,"MEAN_MOTION_DDOT":0}]
